OBJECT_NAME,OBJECT_ID,EPOCH,MEAN_MOTION,ECCENTRICITY,INCLINATION,RA_OF_ASC_NODE,ARG_OF_PERICENTER,MEAN_ANOMALY,EPHEMERIS_TYPE,CLASSIFICATION_TYPE,NORAD_CAT_ID,ELEMENT_SET_NO,REV_AT_EPOCH,BSTAR,MEAN_MOTION_DOT,MEAN_MOTION_DDOT
TJS-14,2025-017A,2026-07-17T06:31:02.339040,1.00268059,.00020027,0.7161,297.9182,307.9493,165.3782,0,U,62804,999,557,0,.105E-5,0
SPAINSAT NG I,2025-021A,2026-07-17T06:25:38.778816,1.00272031,.00000761,0.0202,38.6754,136.6840,245.1188,0,U,62852,999,428,0,.141E-5,0
QZS-6 (MICHIBIKI-6),2025-023A,2026-07-17T03:26:16.214208,1.00274853,.00017977,0.0094,21.6626,92.4559,322.8532,0,U,62876,999,524,0,-.243E-5,0
ZHONGXING-10R,2025-036A,2026-07-17T06:57:22.315104,1.00271306,.00042485,0.0121,97.7036,49.1643,3.1004,0,U,63075,999,526,0,-.362E-5,0
TJS-15,2025-045A,2026-07-16T17:07:37.974144,1.00273452,.0003093,0.3110,85.6500,293.4061,266.7738,0,U,63157,999,505,0,-.276E-5,0
TIANLIAN 2-04,2025-062A,2026-07-17T03:23:23.988768,1.00272078,.00315381,4.2989,274.0091,9.3483,142.4741,0,U,63361,999,490,0,-.144E-5,0
TJS-16,2025-064A,2026-07-16T17:30:20.598048,1.00270998,.000247,1.1725,81.2742,292.6540,343.8270,0,U,63397,999,468,0,-.116E-5,0
TJS-17,2025-073A,2026-07-16T17:31:27.990048,1.00270918,.0000993,1.1385,82.4393,308.8491,330.6314,0,U,63524,999,458,0,-.81E-6,0
TJS-19,2025-097A,2026-07-16T18:31:01.322112,1.00275203,.000411,3.2376,317.9333,252.7576,142.8472,0,U,63924,999,444,0,-.284E-5,0
CHINASAT 3B,2025-106A,2026-07-17T02:05:26.761920,1.00271015,.00039947,0.0253,155.8410,350.1418,347.5963,0,U,64062,999,436,0,-.55E-6,0
SXM-10,2025-122A,2026-07-17T05:20:38.623200,1.00271650,.00017974,0.0201,47.1794,312.8566,258.9988,0,U,64290,999,398,0,-.27E-6,0
COSMOS 2589,2025-131A,2026-07-16T18:32:22.396416,1.00268602,.0000992,0.0255,115.2701,70.5039,124.9299,0,U,64467,999,385,0,-.301E-5,0
CHINASAT 9C,2025-132A,2026-07-17T03:26:46.165632,1.00266186,.00031039,0.0213,83.4358,30.9366,324.4712,0,U,64470,999,444,0,0,0
MTG-S1,2025-143A,2026-07-17T06:25:40.353888,1.00274142,.00033767,0.5833,345.6308,260.2047,145.2810,0,U,64723,999,372,0,-.17E-6,0
DROR 1,2025-148A,2026-07-17T06:24:40.449312,1.00272410,.00019933,0.0424,241.5379,157.3522,348.3668,0,U,64784,999,359,0,-.44E-6,0
SHIYAN-29,2025-196A,2026-07-15T16:49:46.684128,1.00276249,.0013258,28.8520,18.1755,177.9039,85.2184,0,U,65486,999,316,0,-.287E-5,0
NUSANTARA LIMA (NUSANTARA 5),2025-205A,2026-07-17T03:57:38.477952,1.00271607,.00003253,0.0091,110.5979,90.9511,265.6801,0,U,65588,999,302,0,-.368E-5,0
TJS-20,2025-238A,2026-07-16T22:10:20.203680,1.00275775,.00043468,5.4040,299.4378,183.0060,207.3748,0,U,66142,999,263,0,.16E-6,0
CMS-03 (GSAT-7R),2025-249B,2026-07-17T03:48:38.629152,1.00269114,.00022884,0.0124,52.0263,65.3386,308.7793,0,U,66311,999,264,0,0,0
VIASAT-3 F2,2025-261A,2026-07-17T04:20:37.834944,1.00271828,.00005887,0.0064,229.4913,344.5735,67.1225,0,U,66454,999,309,0,-.244E-5,0
SHIJIAN-28 (SJ-28),2025-277A,2026-07-17T05:16:24.987360,1.00275647,.00013012,4.4619,271.6562,53.1787,166.0964,0,U,66549,999,245,0,-.369E-5,0
TJS-22,2025-290A,2026-07-12T19:22:52.255200,1.00269739,.0002691,1.4677,286.9097,318.9700,42.0235,0,U,66990,999,228,0,-.5E-7,0
TJS-23,2025-306A,2026-07-16T12:30:23.596416,1.00275812,.0005046,5.5227,297.3324,196.0418,164.1642,0,U,67226,999,218,0,.11E-6,0
FENGYUN 4C,2025-312A,2026-07-13T15:48:28.031328,1.00269440,.00006584,0.0385,175.3203,48.7481,77.5697,0,U,67246,999,204,0,-.328E-5,0
SHIJIAN-29A (SJ-29A),2025-315A,2026-07-17T01:38:44.322720,1.00272682,.00049257,3.4721,94.3900,51.6482,246.7025,0,U,67302,999,191,0,-.79E-6,0
SHIJIAN-29B (SJ-29B),2025-315C,2026-07-17T03:48:38.629152,1.00272967,.00050872,3.4712,94.3810,54.2575,276.7173,0,U,67403,999,198,0,-.8E-6,0
ELEKTRO-L 5,2026-028A,2026-07-16T23:16:25.474656,1.00271877,.00020769,0.2053,325.7479,175.9879,218.2585,0,U,67756,999,154,0,-.108E-5,0
JAM-E JAM 1,2026-028B,2026-07-17T04:52:49.749312,1.00275088,.00016059,0.2025,313.9579,319.4608,128.8589,0,U,67757,999,142,0,.146E-5,0
ECHOSTAR 25,2026-045A,2026-07-17T04:11:46.183776,1.00268582,.00017821,0.0241,68.6178,43.5230,135.8058,0,U,68126,999,129,0,0,0
TJS-24,2026-116A,2026-07-17T04:43:38.835264,1.00269399,.00003531,0.0825,94.4576,113.5162,248.2303,0,U,69235,999,53,0,-.241E-5,0
