TJS-14                  
1 62804U 25017A   26198.27155485  .00000105  00000+0  00000+0 0  9992
2 62804   0.7161 297.9182 0002002 307.9493 165.3782  1.00268059  5574
SPAINSAT NG I           
1 62852U 25021A   26198.26780994  .00000141  00000+0  00000+0 0  9998
2 62852   0.0202  38.6754 0000076 136.6840 245.1188  1.00272031  4282
QZS-6 (MICHIBIKI-6)     
1 62876U 25023A   26198.14324322 -.00000243  00000+0  00000+0 0  9996
2 62876   0.0094  21.6626 0001797  92.4559 322.8532  1.00274853  5241
ZHONGXING-10R           
1 63075U 25036A   26198.28984161 -.00000362  00000+0  00000+0 0  9992
2 63075   0.0121  97.7036 0004248  49.1643   3.1004  1.00271306  5265
TJS-15                  
1 63157U 25045A   26197.71363396 -.00000276  00000+0  00000+0 0  9995
2 63157   0.3110  85.6500 0003093 293.4061 266.7738  1.00273452  5056
TIANLIAN 2-04           
1 63361U 25062A   26198.14124987 -.00000144  00000+0  00000+0 0  9994
2 63361   4.2989 274.0091 0031538   9.3483 142.4741  1.00272078  4906
TJS-16                  
1 63397U 25064A   26197.72940507 -.00000116  00000+0  00000+0 0  9991
2 63397   1.1725  81.2742 0002470 292.6540 343.8270  1.00270998  4682
TJS-17                  
1 63524U 25073A   26197.73018507 -.00000081  00000+0  00000+0 0  9991
2 63524   1.1385  82.4393 0000993 308.8491 330.6314  1.00270918  4588
TJS-19                  
1 63924U 25097A   26197.77154308 -.00000284  00000+0  00000+0 0  9990
2 63924   3.2376 317.9333 0004110 252.7576 142.8472  1.00275203  4446
CHINASAT 3B             
1 64062U 25106A   26198.08711530 -.00000055  00000+0  00000+0 0  9992
2 64062   0.0253 155.8410 0003994 350.1418 347.5963  1.00271015  4368
SXM-10                  
1 64290U 25122A   26198.22266925 -.00000027  00000+0  00000+0 0  9991
2 64290   0.0201  47.1794 0001797 312.8566 258.9988  1.00271650  3984
COSMOS 2589             
1 64467U 25131A   26197.77248144 -.00000301  00000+0  00000+0 0  9994
2 64467   0.0255 115.2701 0000992  70.5039 124.9299  1.00268602  3859
CHINASAT 9C             
1 64470U 25132A   26198.14358988  .00000000  00000+0  00000+0 0  9994
2 64470   0.0213  83.4358 0003103  30.9366 324.4712  1.00266186  4449
MTG-S1                  
1 64723U 25143A   26198.26782817 -.00000017  00000+0  00000+0 0  9991
2 64723   0.5833 345.6308 0003376 260.2047 145.2810  1.00274142  3726
DROR 1                  
1 64784U 25148A   26198.26713483 -.00000044  00000+0  00000+0 0  9996
2 64784   0.0424 241.5379 0001993 157.3522 348.3668  1.00272410  3591
SHIYAN-29               
1 65486U 25196A   26196.70123477 -.00000287  00000+0  00000+0 0  9993
2 65486  28.8520  18.1755 0013258 177.9039  85.2184  1.00276249  3167
NUSANTARA LIMA (NUSANT*)
1 65588U 25205A   26198.16502868 -.00000368  00000+0  00000+0 0  9994
2 65588   0.0091 110.5979 0000325  90.9511 265.6801  1.00271607  3028
TJS-20                  
1 66142U 25238A   26197.92384495  .00000016  00000+0  00000+0 0  9993
2 66142   5.4040 299.4378 0004346 183.0060 207.3748  1.00275775  2637
CMS-03 (GSAT-7R)        
1 66311U 25249B   26198.15878043  .00000000  00000+0  00000+0 0  9999
2 66311   0.0124  52.0263 0002288  65.3386 308.7793  1.00269114  2648
VIASAT-3 F2             
1 66454U 25261A   26198.18099346 -.00000244  00000+0  00000+0 0  9996
2 66454   0.0064 229.4913 0000588 344.5735  67.1225  1.00271828  3093
SHIJIAN-28 (SJ-28)      
1 66549U 25277A   26198.21973365 -.00000369  00000+0  00000+0 0  9992
2 66549   4.4619 271.6562 0001301  53.1787 166.0964  1.00275647  2456
TJS-22                  
1 66990U 25290A   26193.80754925 -.00000005  00000+0  00000+0 0  9993
2 66990   1.4677 286.9097 0002691 318.9700  42.0235  1.00269739  2289
TJS-23                  
1 67226U 25306A   26197.52110644  .00000011  00000+0  00000+0 0  9997
2 67226   5.5227 297.3324 0005046 196.0418 164.1642  1.00275812  2181
FENGYUN 4C              
1 67246U 25312A   26194.65865777 -.00000328  00000+0  00000+0 0  9993
2 67246   0.0385 175.3203 0000658  48.7481  77.5697  1.00269440  2048
SHIJIAN-29A (SJ-29A)    
1 67302U 25315A   26198.06856855 -.00000079  00000+0  00000+0 0  9998
2 67302   3.4721  94.3900 0004925  51.6482 246.7025  1.00272682  1913
SHIJIAN-29B (SJ-29B)    
1 67403U 25315C   26198.15878043 -.00000080  00000+0  00000+0 0  9995
2 67403   3.4712  94.3810 0005087  54.2575 276.7173  1.00272967  1987
ELEKTRO-L 5             
1 67756U 26028A   26197.96973929 -.00000108  00000+0  00000+0 0  9996
2 67756   0.2053 325.7479 0002076 175.9879 218.2585  1.00271877  1545
JAM-E JAM 1             
1 67757U 26028B   26198.20335358  .00000146  00000+0  00000+0 0  9994
2 67757   0.2025 313.9579 0001605 319.4608 128.8589  1.00275088  1422
ECHOSTAR 25             
1 68126U 26045A   26198.17484009  .00000000  00000+0  00000+0 0  9997
2 68126   0.0241  68.6178 0001782  43.5230 135.8058  1.00268582  1297
TJS-24                  
1 69235U 26116A   26198.19697726 -.00000241  00000+0  00000+0 0  9990
2 69235   0.0825  94.4576 0000353 113.5162 248.2303  1.00269399   536
